{
  "norad_id": 63352,
  "name": "LEMUR-2-ESPERANZA",
  "history": [
    {
      "epoch": "2026-03-28T22:10:13.508544Z",
      "apogee_km": 540.0429398781907,
      "perigee_km": 514.3907932276434,
      "latitude_deg": 2.972564038452279e-05,
      "longitude_deg": -94.88103221466567,
      "height_km": 543.0805324306907,
      "semi_major_axis_km": 6905.353866552917,
      "eccentricity": 0.00185741,
      "inclination_deg": 97.5584,
      "raan_deg": 64.0125,
      "arg_perigee_deg": 175.5155,
      "mean_anomaly_deg": 184.6246,
      "mean_motion_rev_day": 15.12947484
    },
    {
      "epoch": "2026-03-29T04:31:10.803072Z",
      "apogee_km": 540.049233265745,
      "perigee_km": 514.3572244103298,
      "latitude_deg": -4.3219854514488304e-05,
      "longitude_deg": 169.88159590787353,
      "height_km": 543.0683007357514,
      "semi_major_axis_km": 6905.340228838038,
      "eccentricity": 0.0018603,
      "inclination_deg": 97.5585,
      "raan_deg": 64.2746,
      "arg_perigee_deg": 174.5868,
      "mean_anomaly_deg": 185.5567,
      "mean_motion_rev_day": 15.12951966
    },
    {
      "epoch": "2026-03-30T04:19:45.309792Z",
      "apogee_km": 540.110038013946,
      "perigee_km": 514.2344631900905,
      "latitude_deg": 1.1438545666872378e-06,
      "longitude_deg": 172.7431877556917,
      "height_km": 543.0292228132803,
      "semi_major_axis_km": 6905.309250602018,
      "eccentricity": 0.0018736,
      "inclination_deg": 97.5585,
      "raan_deg": 65.2578,
      "arg_perigee_deg": 171.1186,
      "mean_anomaly_deg": 189.038,
      "mean_motion_rev_day": 15.12962147
    },
    {
      "epoch": "2026-03-30T10:40:42.402144Z",
      "apogee_km": 540.1251605468897,
      "perigee_km": 514.2003175246391,
      "latitude_deg": 2.423560401311607e-05,
      "longitude_deg": 77.50674815098992,
      "height_km": 543.0107346711914,
      "semi_major_axis_km": 6905.299739035764,
      "eccentricity": 0.00187717,
      "inclination_deg": 97.5585,
      "raan_deg": 65.52,
      "arg_perigee_deg": 170.2254,
      "mean_anomaly_deg": 189.9346,
      "mean_motion_rev_day": 15.12965273
    }
  ]
}